STARLINK-5150           
1 57144U 23090AV  24054.82132383  .00001015  00000+0  90199-4 0  9998
2 57144  43.0030 349.2238 0000947 274.8993  85.1741 15.02533045 38326
STARLINK-5768           
1 57145U 23090AW  24055.20020704  .00001605  00000+0  13386-3 0  9992
2 57145  43.0045 346.9062 0001063 266.1494  93.9226 15.02541484 37434
STARLINK-5791           
1 57146U 23090AX  24054.87448975  .00008639  00000+0  65350-3 0  9991
2 57146  43.0018 348.7643 0001204 299.1865  60.8857 15.02551697 38335
STARLINK-5765           
1 57147U 23090AY  24054.86338414  .00001391  00000+0  11801-3 0  9997
2 57147  43.0007 348.6753 0000771 269.6604  90.4150 15.02533333 38529
STARLINK-5788           
1 57148U 23090AZ  24054.85672308  .00001282  00000+0  10992-3 0  9999
2 57148  43.0024 348.6269 0000714 282.1756  77.9006 15.02537881 38337
STARLINK-5778           
1 57149U 23090BA  24055.07664345 -.00000620  00000+0 -30860-4 0  9991
2 57149  43.0030 321.6505 0000919 251.8964 108.1778 15.02537014 37723
STARLINK-5780           
1 57150U 23090BB  24055.20353425  .00001074  00000+0  94569-4 0  9990
2 57150  43.0044 346.9326 0001093 264.1630  95.9088 15.02544873 37438
STARLINK-5776           
1 57151U 23090BC  24054.80356565  .00001192  00000+0  10326-3 0  9993
2 57151  43.0003 349.0892 0000654 284.8312  75.2458 15.02532165 38517
STARLINK-6164           
1 57152U 23090BD  24055.07281341 -.00001618  00000+0 -10472-3 0  9990
2 57152  43.0034 347.6723 0001167 276.6944  83.3765 15.02539627 37418
STARLINK-5879           
1 57153U 23090BE  24055.16284576 -.00001169  00000+0 -71447-4 0  9995
2 57153  43.0043 334.4693 0001149 262.9990  97.0722 15.02543546 37575
STARLINK-6106           
1 57154U 23090BF  24055.19688307  .00001193  00000+0  10335-3 0  9992
2 57154  43.0024 346.8806 0000971 269.1426  90.9305 15.02537244 37435
STARLINK-6108           
1 57155U 23090BG  24055.24893065  .00000741  00000+0  69927-4 0  9998
2 57155  43.0048 346.4125 0001231 284.6693  75.4013 15.02537432 37444
STARLINK-6137           
1 57156U 23090BH  24055.18578510  .00009148  00000+0  69170-3 0  9996
2 57156  43.0049 346.7979 0000875 264.0621  96.0122 15.02517427 37433
STARLINK-5525           
1 57218U 23094A   24055.19308855  .00004276  00000+0  33140-3 0  9998
2 57218  43.0026 116.1217 0000724 272.0231  88.0529 15.02539943 35303
STARLINK-5520           
1 57219U 23094B   24055.18976434  .00000397  00000+0  44432-4 0  9999
2 57219  43.0019 116.0958 0000472 274.4184  85.6605 15.02534768 35308
STARLINK-5880           
1 57220U 23094C   24055.44013310  .00000788  00000+0  73350-4 0  9990
2 57220  43.0011 114.5342 0000448 251.5603 108.5191 15.02538460 35349
STARLINK-5875           
1 57221U 23094D   24054.85404345  .00001707  00000+0  14138-3 0  9997
2 57221  43.0026 117.8785 0001021 276.0828  83.9898 15.02532492 35251
STARLINK-5870           
1 57222U 23094E   24055.44678253 -.00003639  00000+0 -25427-3 0  9996
2 57222  43.0018 114.5858 0000143   4.4311 355.6532 15.02562589 35403
STARLINK-5519           
1 57223U 23094F   24055.18421258  .00000173  00000+0  27846-4 0  9995
2 57223  43.0007 116.0537 0000666 261.9709  98.1057 15.02532658 35308
STARLINK-5983           
1 57224U 23094G   24055.17755414  .00000171  00000+0  27708-4 0  9994
2 57224  43.0020 116.0054 0000457 261.4821  98.5969 15.02536712 35307
STARLINK-6294           
1 57225U 23094H   24055.44235302  .00000517  00000+0  53343-4 0  9992
2 57225  43.0013 114.5530 0000843 274.5251  85.5495 15.02534487 35401
STARLINK-6350           
1 57226U 23094J   24055.49883862  .00001009  00000+0  89724-4 0  9997
2 57226  43.0034 114.1150 0001214 273.7690  86.3013 15.02538773 35351
STARLINK-5996           
1 57227U 23094K   24055.17088978  .00000809  00000+0  74935-4 0  9993
2 57227  43.0013 115.9547 0000858 256.5469 103.5277 15.02535753 35308
STARLINK-6230           
1 57228U 23094L   24055.42903679 -.00000093  00000+0  81817-5 0  9990
2 57228  43.0029 114.4514 0001177 261.5433  98.5276 15.02529707 35344
STARLINK-6233           
1 57229U 23094M   24055.16978316  .00000658  00000+0  63790-4 0  9997
2 57229  43.0016 115.9454 0000780 264.8382  95.2371 15.02532193 35307
STARLINK-6250           
1 57230U 23094N   24055.15756963  .00001773  00000+0  14627-3 0  9993
2 57230  43.0027 115.8531 0001205 271.8091  88.2613 15.02538592 35304
STARLINK-5840           
1 57231U 23094P   24055.20074691  .00000513  00000+0  53039-4 0  9993
2 57231  43.0020 115.3190 0001002 290.2482  69.8252 15.02532761 35315
STARLINK-5872           
1 57232U 23094Q   24055.19963488 -.00000047  00000+0  11628-4 0  9994
2 57232  43.0041 115.3074 0001170 274.5745  85.4964 15.02531368 35375
STARLINK-5866           
1 57233U 23094R   24055.20740183  .00000387  00000+0  43753-4 0  9992
2 57233  43.0019 115.3689 0001100 280.3988  79.6730 15.02534690 35311
STARLINK-6368           
1 57234U 23094S   24055.19741348 -.00001319  00000+0 -82615-4 0  9993
2 57234  43.0014 115.2931 0000916 272.6466  87.4272 15.02541056 35317
STARLINK-6360           
1 57235U 23094T   24055.14314266  .00000474  00000+0  50188-4 0  9993
2 57235  43.0021 115.7471 0000928 269.8080  90.2656 15.02535267 35307
STARLINK-6315           
1 57236U 23094U   24055.13797069  .00001904  00000+0  15595-3 0  9990
2 57236  43.0027 103.5626 0000894 273.8228  86.2512 15.02536393 35444
STARLINK-6365           
1 57237U 23094V   24055.20407754  .00000085  00000+0  21371-4 0  9997
2 57237  43.0026 115.3429 0001142 271.2193  88.8518 15.02530260 35313
STARLINK-6334           
1 57238U 23094W   24055.19667578 -.00000649  00000+0 -32992-4 0  9997
2 57238  43.0014 103.1383 0001071 271.8830  88.1889 15.02535306 35455
STARLINK-6330           
1 57239U 23094X   24055.19628526  .00006725  00000+0  51204-3 0  9993
2 57239  43.0025 115.2834 0001308 274.3477  85.7216 15.02562331 35311
STARLINK-6351           
1 57240U 23094Y   24055.38723222  .00002037  00000+0  16580-3 0  9995
2 57240  43.0033 101.9889 0001071 269.7324  90.3396 15.02536544 35486
STARLINK-6349           
1 57241U 23094Z   24055.20111870  .00000392  00000+0  44108-4 0  9997
2 57241  43.0021 103.1747 0001037 264.1431  95.9293 15.02533686 35459
STARLINK-6306           
1 57242U 23094AA  24054.86540111  .00000183  00000+0  28582-4 0  9999
2 57242  43.0012 104.9532 0000292 326.2124  33.8700 15.02535374 35407
STARLINK-6346           
1 57243U 23094AB  24055.46592044  .00000725  00000+0  68773-4 0  9997
2 57243  43.0033 101.7217 0001114 268.5321  91.5394 15.02533286 35496
STARLINK-5610           
1 57244U 23094AC  24055.32297233  .00001582  00000+0  13214-3 0  9996
2 57244  43.0042 102.3676 0001160 269.8350  90.2359 15.02538256 35501
STARLINK-5587           
1 57245U 23094AD  24055.19335106  .00000279  00000+0  35723-4 0  9996
2 57245  43.0027 103.1135 0001022 274.9299  85.1427 15.02532455 35458
STARLINK-5049           
1 57246U 23094AE  24055.43039654  .00000986  00000+0  88034-4 0  9991
2 57246  43.0025 101.4515 0000822 259.1992 100.8758 15.02541357 35499
STARLINK-5039           
1 57247U 23094AF  24055.18669001  .00000132  00000+0  24867-4 0  9996
2 57247  43.0018 103.0624 0000969 264.9147  95.1584 15.02534432 35454
STARLINK-5514           
1 57248U 23094AG  24055.18336055  .00000420  00000+0  46194-4 0  9994
2 57248  43.0027 103.0399 0001058 268.8024  91.2697 15.02532408 35454
STARLINK-5517           
1 57249U 23094AH  24055.18113672  .00003498  00000+0  27395-3 0  9992
2 57249  43.0042 102.9769 0000770 279.8458  80.2297 15.02525647 35455
STARLINK-5488           
1 57250U 23094AJ  24055.17115338  .00000756  00000+0  70994-4 0  9992
2 57250  43.0017 102.9464 0000583 272.2767  87.8009 15.02532780 35453
STARLINK-5513           
1 57251U 23094AK  24054.84541924  .00000571  00000+0  57364-4 0  9991
2 57251  43.0019 104.8044 0000980 276.3582  83.7149 15.02535293 35229
STARLINK-5511           
1 57252U 23094AL  24055.16338154  .00000638  00000+0  62303-4 0  9990
2 57252  43.0024 102.8879 0001005 268.4604  91.6123 15.02532877 35456
STARLINK-5516           
1 57253U 23094AM  24054.84430939  .00000901  00000+0  81774-4 0  9995
2 57253  43.0019 104.7976 0000979 276.2231  83.8500 15.02538592 35229
STARLINK-5490           
1 57254U 23094AN  24055.15782921  .00001226  00000+0  10582-3 0  9991
2 57254  43.0017 102.8468 0001146 271.1704  88.9007 15.02535583 35459
STARLINK-5481           
1 57255U 23094AP  24055.16005255  .00000225  00000+0  31751-4 0  9991
2 57255  43.0027 102.8631 0001001 268.7478  91.3249 15.02534359 35459
STARLINK-5512           
1 57256U 23094AQ  24055.14007837  .00003923  00000+0  30515-3 0  9992
2 57256  42.9998 102.7341 0000731 315.7308  44.3476 15.02552788 35452
STARLINK-5503           
1 57257U 23094AR  24055.16671000  .00000486  00000+0  51031-4 0  9992
2 57257  43.0023 102.9144 0000958 274.3138  85.7595 15.02534584 35454
STARLINK-5476           
1 57258U 23094AS  24055.15450299  .00001140  00000+0  99425-4 0  9994
2 57258  43.0023 102.8210 0000701 232.9999 127.0779 15.02529254 35451
STARLINK-5505           
1 57259U 23094AT  24051.25105803  .00756245  29711-3  94721-3 0  9990
2 57259  42.9826  22.9230 0016008 155.0038 340.8235 16.06529017 36029
STARLINK-5026           
1 57260U 23094AU  24054.81545102  .00000537  00000+0  54817-4 0  9992
2 57260  43.0024 104.5767 0001145 261.5187  98.5526 15.02536186 35860
STARLINK-5485           
1 57261U 23094AV  24054.88167299  .00000778  00000+0  72678-4 0  9999
2 57261  43.0014 117.2261 0001184 272.5629  87.5078 15.02536979 35327
STARLINK-5504           
1 57262U 23094AW  24055.15672058  .00000511  00000+0  52896-4 0  9990
2 57262  43.0020 102.8390 0001130 266.9308  93.1405 15.02534056 35455
STARLINK-5509           
1 57263U 23094AX  24055.21295345  .00002350  00000+0  18897-3 0  9993
2 57263  43.0034 115.4107 0000825 288.5507  71.5245 15.02534191 35315
